NORAD_CAT_ID,OBJECT_NAME,OBJECT_TYPE,EPOCH,MEAN_MOTION,ECCENTRICITY,INCLINATION,RA_OF_ASC_NODE,ARG_OF_PERICENTER,MEAN_ANOMALY,BSTAR,MEAN_MOTION_DOT,MEAN_MOTION_DDOT,TLE_LINE0,TLE_LINE1,TLE_LINE2,SEMIMAJOR_AXIS,PERIOD,APOGEE,PERIGEE,DECAYED
53552.0,STARLINK-4495,PAYLOAD,2024-03-10 10:18:23,15.08849238,0.0001615,53.2167,97.8944,90.6456,269.4722,0.0002005,2.905e-05,0.0,0 STARLINK-4495,1 53552U 22101AB  24070.42943295  .00002905  00000-0  20050-3 0  9993,2 53552  53.2167  97.8944 0001615  90.6456 269.4722 15.08849238 86217,6917.852,95.437,540.834,538.6,0.0
53552.0,STARLINK-4495,PAYLOAD,2024-03-10 18:15:18,15.08844137,0.0001647,53.218,96.409,91.1345,268.9836,5.3277e-05,5.6e-06,0.0,0 STARLINK-4495,1 53552U 22101AB  24070.76063393  .00000560  00000-0  53277-4 0  9995,2 53552  53.2180  96.4090 0001647  91.1345 268.9836 15.08844137 86917,6917.868,95.437,540.872,538.593,0.0
53552.0,STARLINK-4495,PAYLOAD,2024-03-11 05:23:01,15.0883429,0.0001682,53.2181,94.3281,95.1578,264.9607,-9.7723e-07,-3.04e-06,0.0,0 STARLINK-4495,1 53552U 22101AB  24071.22432179 -.00000304  00000-0 -97723-6 0  9993,2 53552  53.2181  94.3281 0001682  95.1578 264.9607 15.08834290 86335,6917.898,95.438,540.926,538.599,0.0
53552.0,STARLINK-4495,PAYLOAD,2024-03-11 08:33:47,15.0883339,0.0001689,53.2182,93.7337,94.1106,266.0079,-3.6389e-05,-8.67e-06,0.0,0 STARLINK-4495,1 53552U 22101AB  24071.35680013 -.00000867  00000-0 -36389-4 0  9992,2 53552  53.2182  93.7337 0001689  94.1106 266.0079 15.08833390 87005,6917.901,95.438,540.934,538.597,0.0
53552.0,STARLINK-4495,PAYLOAD,2024-03-12 08:24:34,15.08840948,0.0001712,53.219,89.2733,100.8828,259.2357,6.2626e-05,7.09e-06,0.0,0 STARLINK-4495,1 53552U 22101AB  24072.35040105  .00000709  00000-0  62626-4 0  9991,2 53552  53.2190  89.2733 0001712 100.8828 259.2357 15.08840948 86501,6917.877,95.437,540.927,538.558,0.0
53552.0,STARLINK-4495,PAYLOAD,2024-03-13 05:04:36,15.08830205,0.0001582,53.2177,85.4064,87.4813,272.636,6.6944e-05,7.77e-06,0.0,0 STARLINK-4495,1 53552U 22101AB  24073.21153048  .00000777  00000-0  66944-4 0  9990,2 53552  53.2177  85.4064 0001582  87.4813 272.6360 15.08830205 86632,6917.91,95.438,540.87,538.681,0.0
53552.0,STARLINK-4495,PAYLOAD,2024-03-13 09:50:45,15.08832794,0.0001533,53.2171,84.5137,83.1767,276.9399,7.5673e-05,9.16e-06,0.0,0 STARLINK-4495,1 53552U 22101AB  24073.41024970  .00000916  00000-0  75673-4 0  9997,2 53552  53.2171  84.5137 0001533  83.1767 276.9399 15.08832794 87314,6917.902,95.438,540.828,538.707,0.0
53552.0,STARLINK-4495,PAYLOAD,2024-03-13 17:47:41,15.08837095,0.0001539,53.2172,83.027,85.1523,274.9645,8.4872e-05,1.063e-05,0.0,0 STARLINK-4495,1 53552U 22101AB  24073.74144819  .00001063  00000-0  84872-4 0  9993,2 53552  53.2172  83.0270 0001539  85.1523 274.9645 15.08837095 87361,6917.889,95.438,540.819,538.69,0.0
53552.0,STARLINK-4495,PAYLOAD,2024-03-14 04:55:22,15.08843209,0.0001491,53.2169,80.9451,85.5314,274.5849,7.3735e-05,8.86e-06,0.0,0 STARLINK-4495,1 53552U 22101AB  24074.20512509  .00000886  00000-0  73735-4 0  9998,2 53552  53.2169  80.9451 0001491  85.5314 274.5849 15.08843209 86784,6917.871,95.437,540.767,538.704,0.0
53552.0,STARLINK-4495,PAYLOAD,2024-03-14 06:30:45,15.08844574,0.0001464,53.2169,80.6472,89.4957,270.6202,7.4433e-05,8.97e-06,0.0,0 STARLINK-4495,1 53552U 22101AB  24074.27136401  .00000897  00000-0  74433-4 0  9996,2 53552  53.2169  80.6472 0001464  89.4957 270.6202 15.08844574 87440,6917.866,95.437,540.744,538.719,0.0
53552.0,STARLINK-4495,PAYLOAD,2024-03-14 09:41:31,15.08849275,0.0001574,53.2173,80.0526,90.9628,269.1545,0.00011809,1.592e-05,0.0,0 STARLINK-4495,1 53552U 22101AB  24074.40384017  .00001592  00000-0  11809-3 0  9999,2 53552  53.2173  80.0526 0001574  90.9628 269.1545 15.08849275 86819,6917.852,95.437,540.806,538.628,0.0
53552.0,STARLINK-4495,PAYLOAD,2024-03-15 04:46:09,15.08841978,0.0001533,53.2166,76.4834,94.2679,265.8488,0.00010462,1.378e-05,0.0,0 STARLINK-4495,1 53552U 22101AB  24075.19872516  .00001378  00000-0  10462-3 0  9998,2 53552  53.2166  76.4834 0001533  94.2679 265.8488 15.08841978 86934,6917.874,95.437,540.8,538.679,0.0
53552.0,STARLINK-4495,PAYLOAD,2024-03-15 06:21:33,15.08828952,0.0001403,53.2176,76.1866,96.2262,263.889,0.00028011,4.172e-05,0.0,0 STARLINK-4495,1 53552U 22101AB  24075.26496772  .00004172  00000-0  28011-3 0  9996,2 53552  53.2176  76.1866 0001403  96.2262 263.8890 15.08828952 86946,6917.914,95.438,540.75,538.809,0.0
53552.0,STARLINK-4495,PAYLOAD,2024-03-16 09:23:05,15.08848875,0.0001474,53.2176,71.131,88.5104,271.6057,3.8175e-05,3.2e-06,0.0,0 STARLINK-4495,1 53552U 22101AB  24076.39104149  .00000320  00000-0  38175-4 0  9999,2 53552  53.2176  71.1310 0001474  88.5104 271.6057 15.08848875 87110,6917.853,95.437,540.738,538.699,0.0
53552.0,STARLINK-4495,PAYLOAD,2024-03-17 04:27:44,15.08839682,0.0001778,53.2184,67.5605,116.1406,243.9769,1.5832e-05,-3.6e-07,0.0,0 STARLINK-4495,1 53552U 22101AB  24077.18592617 -.00000036  00000-0  15832-4 0  9998,2 53552  53.2184  67.5605 0001778 116.1406 243.9769 15.08839682 87236,6917.881,95.438,540.976,538.516,0.0
53552.0,STARLINK-4495,PAYLOAD,2024-03-17 06:03:07,15.08839824,0.0001727,53.2185,67.2632,114.0633,246.054,1.4186e-05,-6.2e-07,0.0,0 STARLINK-4495,1 53552U 22101AB  24077.25216612 -.00000062  00000-0  14186-4 0  9994,2 53552  53.2185  67.2632 0001727 114.0633 246.0540 15.08839824 87898,6917.881,95.438,540.941,538.551,0.0
53552.0,STARLINK-4495,PAYLOAD,2024-03-18 04:18:30,15.08843815,0.0001615,53.2185,63.0983,108.1381,251.9787,9.2549e-05,1.185e-05,0.0,0 STARLINK-4495,1 53552U 22101AB  24078.17952188  .00001185  00000-0  92549-4 0  9996,2 53552  53.2185  63.0983 0001615 108.1381 251.9787 15.08843815 88031,6917.869,95.437,540.851,538.616,0.0
53552.0,STARLINK-4495,PAYLOAD,2024-03-19 04:09:17,15.08837063,0.0001532,53.22,58.6508,87.3115,272.8053,3.5385e-05,2.75e-06,0.0,0 STARLINK-4495,1 53552U 22101AB  24079.17312467  .00000275  00000-0  35385-4 0  9991,2 53552  53.2200  58.6508 0001532  87.3115 272.8053 15.08837063 87533,6917.889,95.438,540.814,538.695,0.0
53552.0,STARLINK-4495,PAYLOAD,2024-03-19 07:20:04,15.0883591,0.0001445,53.2189,58.0454,88.5545,271.5613,1.7245e-05,-1.4e-07,0.0,0 STARLINK-4495,1 53552U 22101AB  24079.30560476 -.00000014  00000-0  17245-4 0  9998,2 53552  53.2189  58.0454 0001445  88.5545 271.5613 15.08835910 88208,6917.893,95.438,540.758,538.758,0.0
53552.0,STARLINK-4495,PAYLOAD,2024-03-20 05:35:31,15.08811977,0.0001487,53.2183,53.8792,115.0917,245.0229,-0.00024787,-4.228e-05,0.0,0 STARLINK-4495,1 53552U 22101AB  24080.23299858 -.00004228  00000-0 -24787-3 0  9995,2 53552  53.2183  53.8792 0001487 115.0917 245.0229 15.08811977 87693,6917.966,95.439,540.86,538.802,0.0
53552.0,STARLINK-4495,PAYLOAD,2024-03-21 03:50:52,15.08847257,0.000167,53.2195,49.7198,89.4515,270.6668,0.00031119,4.669e-05,0.0,0 STARLINK-4495,1 53552U 22101AB  24081.16032931  .00004669  00000-0  31119-3 0  9999,2 53552  53.2195  49.7198 0001670  89.4515 270.6668 15.08847257 87839,6917.858,95.437,540.878,538.568,0.0
53552.0,STARLINK-4495,PAYLOAD,2024-03-21 05:26:15,15.08847647,0.0001741,53.2197,49.4211,82.5176,277.6014,0.00033692,5.079e-05,0.0,0 STARLINK-4495,1 53552U 22101AB  24081.22656899  .00005079  00000-0  33692-3 0  9995,2 53552  53.2197  49.4211 0001741  82.5176 277.6014 15.08847647 88498,6917.857,95.437,540.926,538.518,0.0
53552.0,STARLINK-4495,PAYLOAD,2024-03-21 21:20:07,15.08839405,0.0001544,53.2158,46.4534,115.9254,244.1897,0.00044444,6.792e-05,0.0,0 STARLINK-4495,1 53552U 22101AB  24081.88897331  .00006792  00000-0  44444-3 0  9995,2 53552  53.2158  46.4534 0001544 115.9254 244.1897 15.08839405 87949,6917.882,95.438,540.815,538.679,0.0
53552.0,STARLINK-4495,PAYLOAD,2024-03-22 05:17:01,15.08855704,0.0001416,53.218,44.9615,110.9338,249.1806,0.00058144,8.982e-05,0.0,0 STARLINK-4495,1 53552U 22101AB  24082.22015953  .00008982  00000-0  58144-3 0  9991,2 53552  53.2180  44.9615 0001416 110.9338 249.1806 15.08855704 87993,6917.832,95.437,540.677,538.718,0.0
53552.0,STARLINK-4495,PAYLOAD,2024-03-22 06:52:24,15.08859569,0.0001641,53.2174,44.6639,138.6286,221.483,0.0005318,8.19e-05,0.0,0 STARLINK-4495,1 53552U 22101AB  24082.28639574  .00008190  00000-0  53180-3 0  9994,2 53552  53.2174  44.6639 0001641 138.6286 221.4830 15.08859569 88655,6917.821,95.436,540.821,538.55,0.0
53552.0,STARLINK-4495,PAYLOAD,2024-03-22 21:10:55,15.08847428,0.0001551,53.2192,41.9881,97.6914,262.4254,-0.00011129,-2.059e-05,0.0,0 STARLINK-4495,1 53552U 22101AB  24082.88258345 -.00002059  00000-0 -11129-3 0  9990,2 53552  53.2192  41.9881 0001551  97.6914 262.4254 15.08847428 88090,6917.858,95.437,540.796,538.65,0.0
53552.0,STARLINK-4495,PAYLOAD,2024-03-23 06:43:13,15.08853244,0.0001825,53.219,40.2038,97.7542,262.3658,-5.0299e-05,-1.089e-05,0.0,0 STARLINK-4495,1 53552U 22101AB  24083.28001620 -.00001089  00000-0 -50299-4 0  9991,2 53552  53.2190  40.2038 0001825  97.7542 262.3658 15.08853244 88153,6917.84,95.437,540.967,538.442,0.0
53552.0,STARLINK-4495,PAYLOAD,2024-03-24 03:23:12,15.08860237,0.0001821,53.2183,36.3382,114.8492,245.269,-3.0773e-05,-7.78e-06,0.0,0 STARLINK-4495,1 53552U 22101AB  24084.14111824 -.00000778  00000-0 -30773-4 0  9994,2 53552  53.2183  36.3382 0001821 114.8492 245.2690 15.08860237 88284,6917.819,95.436,540.943,538.424,0.0
53552.0,STARLINK-4495,PAYLOAD,2024-03-24 20:52:27,15.08854038,0.0001504,53.2187,33.0646,109.0017,251.1138,0.00023608,3.473e-05,0.0,0 STARLINK-4495,1 53552U 22101AB  24084.86976413  .00003473  00000-0  23608-3 0  9997,2 53552  53.2187  33.0646 0001504 109.0017 251.1138 15.08854038 88399,6917.837,95.437,540.743,538.662,0.0
53552.0,STARLINK-4495,PAYLOAD,2024-03-25 20:43:16,15.088051,5.9e-05,53.2195,28.6084,56.5425,303.5624,-0.00076707,-0.00012463,0.0,0 STARLINK-4495,1 53552U 22101AB  24085.86338310 -.00012463  00000-0 -76707-3 0  9995,2 53552  53.2195  28.6084 0000590  56.5425 303.5624 15.08805100 88542,6917.987,95.44,540.26,539.444,0.0
